ORBCOMM FM06            
1 25118U 97084G   26161.09569714  .00001167  00000+0  35341-3 0  9995
2 25118  45.0138  86.8502 0001779 309.1215  74.3740 14.47545204493360
ORBCOMM FM04            
1 25159U 98007C   26161.21802151  .00000778  00000+0  31179-3 0  9997
2 25159 107.9626 155.0758 0041112 336.7726  23.1556 14.35728486475599
ORBCOMM FM19            
1 25415U 98046C   26159.60637546  .00000874  00000+0  32314-3 0  9998
2 25415  44.9944 284.3488 0004317 247.3219 131.3998 14.39482707455545
ORBCOMM FM20            
1 25416U 98046D   26161.06589807  .00000569  00000+0  23271-3 0  9991
2 25416  44.9949 285.2554 0001850 226.4731 133.5964 14.38057184455768
ORBCOMM FM27            
1 25481U 98053G   26160.89855490  .00000814  00000+0  30634-3 0  9999
2 25481  45.0065   9.9716 0000329 142.8182 217.2690 14.39127851449188
ORBCOMM FM32            
1 25982U 99065C   26160.85221542  .00000477  00000+0  20639-3 0  9999
2 25982  45.0139 207.9599 0004968 357.0769   3.0050 14.37122082386033
ORBCOMM FM109           
1 40086U 14040A   26161.18104661  .00000400  00000+0  12090-3 0  9998
2 40086  47.0021 124.6108 0001707 226.4310 133.6434 14.58837357633321
ORBCOMM FM114           
1 41179U 15081A   26160.92437708  .00000409  00000+0  12286-3 0  9996
2 41179  47.0059  36.3417 0002028 177.6544 182.4352 14.58850232556693
ORBCOMM FM110           
1 41182U 15081D   26160.98135969  .00000629  00000+0  16934-3 0  9998
2 41182  47.0029  35.5134 0002777  34.0124 326.0939 14.58869109556579
ORBCOMM FM118           
1 41183U 15081E   26159.37192238  .00002733  00000+0  61393-3 0  9999
2 41183  47.0109  43.4533 0003135 338.0740  22.0011 14.58872980556441
ORBCOMM FM112           
1 41184U 15081F   26161.08878541  .00000540  00000+0  15048-3 0  9999
2 41184  47.0001 303.8133 0003307 186.7885 173.2956 14.58893591557912
ORBCOMM FM113           
1 41185U 15081G   26161.13367850  .00000377  00000+0  11609-3 0  9999
2 41185  47.0018 303.9737 0001875 196.8389 163.2434 14.58851189557907
ORBCOMM FM108           
1 41187U 15081J   26160.89066997  .00000435  00000+0  12832-3 0  9995
2 41187  47.0039 216.6960 0002575 192.2753 167.8071 14.58863640559019
ORBCOMM FM117           
1 41188U 15081K   26160.85616420  .00000388  00000+0  11832-3 0  9990
2 41188  47.0001 215.4948 0003096 194.0139 166.0662 14.58859516559057
ORBCOMM FM116           
1 41189U 15081L   26161.11063401  .00000563  00000+0  15516-3 0  9994
2 41189  47.0034 304.0813 0000962  15.3603 344.7311 14.58872358557907
